JUGNU                   
1 37839U 11058B   25361.09029067  .00000493  00000+0  11810-3 0  9994
2 37839  19.9610 273.9331 0018445 335.9484 144.5536 14.13702529734640
SRMSAT                  
1 37841U 11058D   25361.15825308  .00000461  00000+0  10652-3 0  9994
2 37841  19.9733  20.6900 0011979 110.9492 309.0242 14.11516416733482
SUOMI NPP               
1 37849U 11061A   25360.93184728  .00000137  00000+0  85992-4 0  9995
2 37849  98.7791 298.1468 0002548  95.8793 264.2673 14.19518423734004
YAOGAN-12               
1 37875U 11066B   25361.28377970  .00008338  00000+0  34139-3 0  9998
2 37875  97.1398  42.9487 0011859 112.4534 247.7962 15.24477132785831
ZIYUAN 3-01 (ZY 3-01)   
1 38046U 12001A   25361.31221097  .00097868  00000+0  77674-3 0  9998
2 38046  97.1725  68.0927 0001432 273.7194  86.3905 15.70970827777254
BEIDOU-2 M4             
1 38251U 12018B   25360.22023248 -.00000055  00000+0  00000+0 0  9999
2 38251  55.8099 309.9329 0015168 279.7877  80.0472  1.86229697 92721
ARIRANG-3 (KOMPSAT-3)   
1 38338U 12025B   25361.32357986  .00000704  00000+0  15093-3 0  9996
2 38338  98.3343 316.0245 0004636 285.5514  74.5175 14.61732043726237
HORYU-2                 
1 38340U 12025D   25361.30456511  .00004892  00000+0  51833-3 0  9995
2 38340  98.1957 122.6434 0008804  31.1804 328.9933 14.89588346723126
CSSWE                   
1 38761U 12048D   25361.16751794  .00028827  00000+0  77137-3 0  9991
2 38761  64.6642 312.0160 0085143 222.8756 136.5718 15.34280114 89918
CP5                     
1 38763U 12048F   25361.28696150  .00016776  00000+0  61507-3 0  9994
2 38763  64.6487 358.5879 0112055 226.0768 133.1070 15.22345265 90542
METOP-B                 
1 38771U 12049A   25361.22342995  .00000147  00000+0  87345-4 0  9997
2 38771  98.6779  50.9353 0003313 114.2861 245.8662 14.21413865688833
SJ-9A                   
1 38860U 12056A   25361.23586437  .00001195  00000+0  14540-3 0  9996
2 38860  97.6498 334.6908 0027290 102.5877 257.8393 14.84978605674065
COSMOS 2484 (RODNIK-S 6)
1 39059U 13001C   25361.29166340 -.00000042  00000+0 -37343-3 0  9999
2 39059  82.5042 328.7894 0027497  49.5233 310.8237 12.42932205587201
SARAL                   
1 39086U 13009A   25361.25334311  .00000162  00000+0  75638-4 0  9999
2 39086  98.5504 184.9943 0002943  81.5712 278.5805 14.32762198670987
AAUSAT 3                
1 39087U 13009B   25360.76628766  .00000856  00000+0  28736-3 0  9991
2 39087  98.3635 183.5259 0011723  14.8879 345.2652 14.39636279672368
STRAND-1                
1 39090U 13009E   25361.08282524  .00000433  00000+0  16036-3 0  9990
2 39090  98.3823 180.6068 0009200  31.9593 328.2151 14.37017213672349
BRITE-AUSTRIA           
1 39091U 13009F   25361.09347803  .00000284  00000+0  11123-3 0  9990
2 39091  98.3890 179.8442 0010903  39.1308 321.0665 14.36444117672343
UNIBRITE                
1 39092U 13009G   25361.29931310  .00000271  00000+0  10723-3 0  9996
2 39092  98.3929 180.1129 0009768  35.7888 324.3952 14.36315551672317
AIST-2 (RS-43)          
1 39133U 13015D   25361.33251660  .00008450  00000+0  35358-3 0  9995
2 39133  64.8698  98.3324 0028187 255.1841 104.6166 15.23812159697691
GAOFEN-1                
1 39150U 13018A   25361.27220861  .00000515  00000+0  80994-4 0  9990
2 39150  97.9304  71.6729 0018558  99.0325 261.2986 14.76504092682872
NEE-01 PEGASO           
1 39151U 13018B   25361.10623991  .00003950  00000+0  39060-3 0  9997
2 39151  98.0960 134.9881 0013111  15.6702 344.4920 14.92442926685025
TURKSAT-3USAT           
1 39152U 13018C   25361.22581819  .00004051  00000+0  37576-3 0  9996
2 39152  97.8006  87.9168 0011468 318.0313  42.0027 14.94958956685385
CUBEBUG-1 (CAPITAN BETO)
1 39153U 13018D   25360.94384830  .00004925  00000+0  44655-3 0  9995
2 39153  98.1421 148.6243 0011940   2.2135 357.9136 14.95774868685309
PROBA-V                 
1 39159U 13021A   25361.20015181  .00000106  00000+0  64471-4 0  9991
2 39159  98.3404 343.4792 0002995 280.3326  79.7516 14.23551361656641
ESTCUBE 1               
1 39161U 13021C   25361.12241498  .00002340  00000+0  31065-3 0  9991
2 39161  97.7559  56.1984 0007624 208.7897 151.2896 14.80704211679559
ARIRANG-5 (KOMPSAT-5)   
1 39227U 13042A   25361.24201785  .00002213  00000+0  16248-3 0  9990
2 39227  97.6167 185.3400 0002924  32.1514 327.9890 15.04492501678005
GONETS-M 5              
1 39249U 13048A   25361.33447514  .00000062  00000+0  37348-3 0  9996
2 39249  82.4817  90.5274 0016156 224.0874 135.8919 12.42886110557536
GONETS-M 7              
1 39251U 13048C   25361.30049546  .00000147  00000+0  99223-3 0  9993
2 39251  82.4885  93.3812 0016971 225.5877 134.3814 12.42907471557483
FENGYUN 3C              
1 39260U 13052A   25361.23339269  .00000125  00000+0  84604-4 0  9998
2 39260  98.4781 338.2062 0015089 154.4017 205.7908 14.15700753634230
CASSIOPE                
1 39265U 13055A   25361.26184883  .00038254 -19911-6  50833-3 0  9998
2 39265  80.9194 273.6201 0335851 277.2337  79.0830 15.12652640641566
APRIZESAT 7             
1 39416U 13066A   25351.58791045  .00001184  00000+0  12412-3 0  9990
2 39416  97.7478 302.7623 0037879  93.0669 267.4884 14.90916766654167
ZACUBE-1 (TSHEPISOSAT)  
1 39417U 13066B   25351.39749824  .00003280  00000+0  27002-3 0  9998
2 39417  97.8056 307.9496 0042001 132.1904 228.2897 14.99124350653477
APRIZESAT 8             
1 39425U 13066K   25361.12931438  .00001405  00000+0  15929-3 0  9995
2 39425  97.8023 306.2746 0047476 130.7672 229.7679 14.87148874654094
CINEMA-3 (KHUSAT-2)     
1 39426U 13066L   25361.25487530  .00002405  00000+0  32040-3 0  9993
2 39426  97.8447 272.9573 0092250  49.8792 311.0456 14.77626551649055
TRITON-1                
1 39427U 13066M   25361.23933852  .00003683  00000+0  45234-3 0  9993
2 39427  97.8317 270.0124 0093455  74.5876 286.5637 14.80569456648633
DELFI-N3XT              
1 39428U 13066N   25361.22814770  .00009795  00000+0  91125-3 0  9990
2 39428  97.8343 277.0444 0080606  58.3686 302.5365 14.92046861648953
GOMX-1                  
1 39430U 13066Q   25361.27755376  .00002673  00000+0  41295-3 0  9995
2 39430  97.6583 207.4945 0128953 269.5583  89.0847 14.68659263644679
BRITE-PL1 (LEM)         
1 39431U 13066R   25361.23652315  .00001495  00000+0  30787-3 0  9996
2 39431  97.7798 121.1246 0190788 185.7082 174.1942 14.51049560638998
ICUBE-1                 
1 39432U 13066S   25360.89765477  .00017334  00000+0  79314-3 0  9990
2 39432  97.5569 340.2271 0017090 209.1890 150.8392 15.20456769658180
HUMSAT-D                
1 39433U 13066T   25361.27439335  .00119802  00000+0  14213-2 0  9994
2 39433  97.5008   3.6480 0009896 101.3431 258.8938 15.60748241660057
VELOX-PII               
1 39438U 13066Y   25351.41070081  .00003409  00000+0  33591-3 0  9999
2 39438  97.8533 297.9975 0052986 223.7403 135.9612 14.91683963650720
FIRST-MOVE              
1 39439U 13066Z   25360.95262647  .00160501  00000+0  21551-2 0  9999
2 39439  97.7504 346.5778 0014036  15.9601 344.2093 15.57263737655724
CUBEBUG-2 (LO-74)       
1 39440U 13066AA  25351.56788106  .00003439  00000+0  33426-3 0  9992
2 39440  97.8708 295.2332 0058016 269.4523  90.0047 14.92015584649893
NEE-02 KRYSAOR          
1 39441U 13066AB  25351.76100244  .00002517  00000+0  28598-3 0  9996
2 39441  97.8738 287.5718 0066127 305.4504  54.0549 14.85627194649256
FUNCUBE-1 (AO-73)       
1 39444U 13066AE  25360.87308382  .00010550  00000+0  71071-3 0  9994
2 39444  97.8080 324.3284 0040655  69.9839 290.5758 15.06190317653696
HINCUBE                 
1 39445U 13066AF  25361.17218368  .00010745  00000+0  74602-3 0  9992
2 39445  97.7776 322.7046 0037150  75.2263 285.3075 15.05178388653623
UWE-3                   
1 39446U 13066AG  25361.14323762  .00005684  00000+0  50905-3 0  9991
2 39446  97.8493 311.5050 0050911 170.9036 189.3119 14.95222210651850
SMDC ONE 2.4            
1 39469U 13072H   25361.19798027  .00016713  00000+0  71559-3 0  9991
2 39469 120.4943  50.3897 0156033 184.8448 175.1110 15.12706900 91752
CP8 (IPEX)              
1 39471U 13072K   25360.95772995  .00009728  00000+0  50692-3 0  9996
2 39471 120.4723   5.7774 0176254 172.3316 188.0499 15.04418336 89284
COSMOS 2488 (RODNIK-S 7)
1 39483U 13076A   25361.25871368  .00000045  00000+0  25216-3 0  9998
2 39483  82.4843 275.8311 0019905 107.9114 252.4139 12.42871156544536
COSMOS 2489 (RODNIK-S 8)
1 39484U 13076B   25361.23089975  .00000000  00000+0 -72850-4 0  9991
2 39484  82.4881 277.1720 0021663 108.4012 251.9425 12.42872297544589
COSMOS 2490 (RODNIK-S 9)
1 39485U 13076C   25361.28297902 -.00000027  00000+0 -26497-3 0  9993
2 39485  82.4827 275.2805 0021578 123.9508 236.3627 12.42870538544521
AIST-1 (RS-41)          
1 39492U 13078C   25361.30355167  .00002737  00000+0  24479-3 0  9990
2 39492  82.4156  77.3219 0018153 131.0297 229.2497 14.95408729649558
KAZEOSAT 1              
1 39731U 14024A   25361.29168676  .00000230  00000+0  83181-4 0  9995
2 39731  98.3411  72.8713 0001258  97.3876 262.7457 14.42070699613785
COSMOS 2496 (RODNIK-S *)
1 39761U 14028A   25361.32112391  .00000076  00000+0  47616-3 0  9999
2 39761  82.4437 216.3519 0020313  93.2406 267.0998 12.42871420526168
COSMOS 2497 (RODNIK-S *)
1 39762U 14028B   25361.29757514 -.00000023  00000+0 -23736-3 0  9999
2 39762  82.4485 217.9897 0020878  88.5073 271.8398 12.42871458526169
COSMOS 2498 (RODNIK-S *)
1 39763U 14028C   25361.28814706  .00000017  00000+0  52164-4 0  9995
2 39763  82.4446 216.5580 0021573  88.0958 272.2592 12.42973142526198
COSMOS 2499 (RS-47)     
1 39765U 14028E   25361.31578388  .00000038  00000+0  96011-4 0  9996
2 39765  82.4501   8.4127 0232420  45.3710 316.6089 12.82898877542988
HODOYOSHI-4             
1 40011U 14033B   25361.27335652  .00001341  00000+0  15269-3 0  9991
2 40011  97.5414 189.4410 0024412 152.4378 207.8140 14.87531387623244
